[
  {
    "name": "STARLINK-35696",
    "noradId": "66489",
    "line1": "1 66489U 25263E   26181.96903851  .00035434  00000+0  12907-2 0  9999",
    "line2": "2 66489  42.9995  70.9445 0001512 275.6548  84.4131 15.27587677 36227"
  },
  {
    "name": "STARLINK-35693",
    "noradId": "66490",
    "line1": "1 66490U 25263F   26181.75489408  .00021851  00000+0  80090-3 0  9992",
    "line2": "2 66490  43.0032  71.9202 0001593 274.4037  85.6633 15.27593122 36192"
  },
  {
    "name": "STARLINK-35663",
    "noradId": "66491",
    "line1": "1 66491U 25263G   26181.97803128  .00021804  00000+0  79903-3 0  9995",
    "line2": "2 66491  42.9980  71.0084 0001644 274.7075  85.3588 15.27599338 36229"
  },
  {
    "name": "STARLINK-35673",
    "noradId": "66492",
    "line1": "1 66492U 25263H   26181.96646802  .00021625  00000+0  79266-3 0  9992",
    "line2": "2 66492  43.0003  70.9292 0002058 277.4129  82.6489 15.27596091 36220"
  },
  {
    "name": "STARLINK-35597",
    "noradId": "66493",
    "line1": "1 66493U 25263J   26181.99088190  .00031388  00000+0  11442-2 0  9994",
    "line2": "2 66493  43.0007  71.1130 0001534 270.1473  89.9203 15.27609650 36229"
  },
  {
    "name": "STARLINK-35689",
    "noradId": "66494",
    "line1": "1 66494U 25263K   26181.99859330  .00020140  00000+0  73908-3 0  9997",
    "line2": "2 66494  43.0002  71.1737 0001547 274.5602  85.5072 15.27593662 36225"
  },
  {
    "name": "STARLINK-35832",
    "noradId": "66495",
    "line1": "1 66495U 25263L   26181.96261448  .00019933  00000+0  73177-3 0  9998",
    "line2": "2 66495  43.0039  70.8996 0001729 286.4283  73.6379 15.27586630 36223"
  },
  {
    "name": "STARLINK-35909",
    "noradId": "66496",
    "line1": "1 66496U 25263M   26181.00494602  .00026231  00000+0  95880-3 0  9998",
    "line2": "2 66496  43.0011  76.6095 0001361 268.7257  91.3439 15.27598099 36073"
  },
  {
    "name": "STARLINK-35899",
    "noradId": "66497",
    "line1": "1 66497U 25263N   26181.75617196  .00022749  00000+0  83269-3 0  9994",
    "line2": "2 66497  42.9999  71.9156 0001499 201.1394 158.9396 15.27617586 36196"
  },
  {
    "name": "STARLINK-35907",
    "noradId": "66498",
    "line1": "1 66498U 25263P   26181.98445738  .00025430  00000+0  93011-3 0  9997",
    "line2": "2 66498  42.9966  71.0663 0002114 269.1323  90.9286 15.27590816 36229"
  },
  {
    "name": "STARLINK-35816",
    "noradId": "66499",
    "line1": "1 66499U 25263Q   26181.99473747  .00024522  00000+0  89715-3 0  9997",
    "line2": "2 66499  42.9983  71.1413 0001242 274.1763  85.8947 15.27599211 36223"
  },
  {
    "name": "STARLINK-35894",
    "noradId": "66500",
    "line1": "1 66500U 25263R   26181.96727137  .00023411  00000+0  85721-3 0  9991",
    "line2": "2 66500  43.0038  74.3991 0002178 287.6774  72.3840 15.27593582 36188"
  },
  {
    "name": "STARLINK-35897",
    "noradId": "66501",
    "line1": "1 66501U 25263S   26181.97289169  .00021133  00000+0  77494-3 0  9998",
    "line2": "2 66501  42.9962  70.9725 0000600 234.8712 125.2084 15.27594751 36226"
  },
  {
    "name": "STARLINK-35922",
    "noradId": "66502",
    "line1": "1 66502U 25263T   26181.99216720  .00027846  00000+0  10170-2 0  9998",
    "line2": "2 66502  42.9978  71.1154 0000488 238.5203 121.5601 15.27599200 36221"
  },
  {
    "name": "STARLINK-35917",
    "noradId": "66503",
    "line1": "1 66503U 25263U   26181.98060359  .00019482  00000+0  71518-3 0  9994",
    "line2": "2 66503  42.9986  71.0260 0001149 272.7888  87.2832 15.27600111 36220"
  },
  {
    "name": "STARLINK-35916",
    "noradId": "66504",
    "line1": "1 66504U 25263V   26181.98397897  .00031738  00000+0  11576-2 0  9990",
    "line2": "2 66504  43.0003  74.5485 0001130 277.9781  82.0943 15.27589774 36181"
  },
  {
    "name": "STARLINK-34766",
    "noradId": "66505",
    "line1": "1 66505U 25263W   26181.94076639  .00020008  00000+0  73442-3 0  9994",
    "line2": "2 66505  43.0034  70.7287 0001591 260.2219  99.8453 15.27589449 36222"
  },
  {
    "name": "STARLINK-34765",
    "noradId": "66506",
    "line1": "1 66506U 25263X   26181.97032309  .00020091  00000+0  73740-3 0  9997",
    "line2": "2 66506  42.9972  70.9493 0001335 267.6237  92.4462 15.27589756 36220"
  },
  {
    "name": "STARLINK-34767",
    "noradId": "66507",
    "line1": "1 66507U 25263Y   26181.98831271  .00020128  00000+0  73861-3 0  9999",
    "line2": "2 66507  42.9954  71.0900 0001893 283.0600  77.0040 15.27594320 36225"
  },
  {
    "name": "STARLINK-35608",
    "noradId": "66508",
    "line1": "1 66508U 25263Z   26181.97674799  .00021662  00000+0  79407-3 0  9995",
    "line2": "2 66508  42.9992  70.9995 0001530 277.5725  82.4953 15.27593086 36225"
  },
  {
    "name": "STARLINK-35598",
    "noradId": "66509",
    "line1": "1 66509U 25263AA  26181.73833415  .00030664  00000+0  11186-2 0  9993",
    "line2": "2 66509  43.0019  72.6514 0002653 281.1396  78.9157 15.27595259 36181"
  },
  {
    "name": "STARLINK-35600",
    "noradId": "66510",
    "line1": "1 66510U 25263AB  26181.99602355  .00053563  00000+0  19379-2 0  9995",
    "line2": "2 66510  43.0008  71.1463 0001367 261.7356  98.3341 15.27647414 36226"
  },
  {
    "name": "STARLINK-35444",
    "noradId": "66511",
    "line1": "1 66511U 25263AC  26181.96004110  .00018749  00000+0  68860-3 0  9995",
    "line2": "2 66511  43.0033  70.8709 0001097 272.8754  87.1972 15.27604659 36229"
  },
  {
    "name": "STARLINK-35366",
    "noradId": "66512",
    "line1": "1 66512U 25263AD  26181.97417564  .00039146  00000+0  14232-2 0  9995",
    "line2": "2 66512  43.0004  70.9755 0001284 248.9021 111.1693 15.27610037 36224"
  },
  {
    "name": "STARLINK-35692",
    "noradId": "66513",
    "line1": "1 66513U 25263AE  26182.17805073  .00023577  00000+0  86325-3 0  9999",
    "line2": "2 66513  43.0004  69.9267 0001400 279.7592  80.3102 15.27591301 36253"
  },
  {
    "name": "STARLINK-35924",
    "noradId": "66516",
    "line1": "1 66516U 25265A   26182.18190956  .00043291  00000+0  15725-2 0  9992",
    "line2": "2 66516  43.0012 356.7362 0000647 317.9525  42.1277 15.27600089 34476"
  },
  {
    "name": "STARLINK-35937",
    "noradId": "66517",
    "line1": "1 66517U 25265B   26181.51405510  .00019978  00000+0  73327-3 0  9992",
    "line2": "2 66517  42.9989   1.1824 0003230 284.0330  76.0163 15.27588786 34368"
  },
  {
    "name": "STARLINK-35962",
    "noradId": "66518",
    "line1": "1 66518U 25265C   26181.50506483  .00029373  00000+0  10723-2 0  9993",
    "line2": "2 66518  43.0013   1.1156 0000746 258.5625 101.5142 15.27590800 34360"
  },
  {
    "name": "STARLINK-35931",
    "noradId": "66519",
    "line1": "1 66519U 25265D   26181.94605547  .00024410  00000+0  89296-3 0  9992",
    "line2": "2 66519  43.0032 358.4032 0002045 275.6374  84.4244 15.27604098 34433"
  },
  {
    "name": "STARLINK-35952",
    "noradId": "66520",
    "line1": "1 66520U 25265E   26181.88966684  .00032695  00000+0  11916-2 0  9996",
    "line2": "2 66520  43.0038 358.8442 0001716 260.2581  99.8077 15.27601679 34429"
  },
  {
    "name": "STARLINK-35915",
    "noradId": "66521",
    "line1": "1 66521U 25265F   26181.55245599  .00024428  00000+0  89347-3 0  9995",
    "line2": "2 66521  43.0027   0.6091 0002334 168.9257 191.1646 15.27608718 34374"
  },
  {
    "name": "STARLINK-35946",
    "noradId": "66522",
    "line1": "1 66522U 25265G   26181.56787771  .00016604  00000+0  61148-3 0  9996",
    "line2": "2 66522  43.0012   0.7218 0001422 247.6601 112.4100 15.27583795 34374"
  },
  {
    "name": "STARLINK-35969",
    "noradId": "66523",
    "line1": "1 66523U 25265H   26182.19732674  .00026217  00000+0  95852-3 0  9999",
    "line2": "2 66523  43.0038 356.8432 0000573 305.0350  55.0448 15.27591230 34473"
  },
  {
    "name": "STARLINK-35687",
    "noradId": "66524",
    "line1": "1 66524U 25265J   26181.51148767  .00030770  00000+0  11225-2 0  9999",
    "line2": "2 66524  42.9993   1.1674 0000893 267.2155  92.8594 15.27595022 34369"
  },
  {
    "name": "STARLINK-35975",
    "noradId": "66525",
    "line1": "1 66525U 25265K   26182.19860738  .00035716  00000+0  12997-2 0  9996",
    "line2": "2 66525  43.0032 356.8585 0001617 278.0240  82.0428 15.27615651 34477"
  },
  {
    "name": "STARLINK-35932",
    "noradId": "66526",
    "line1": "1 66526U 25265L   26182.19604213  .00021590  00000+0  79160-3 0  9992",
    "line2": "2 66526  43.0009 356.8374 0000258 303.4731  56.6096 15.27588140 34476"
  },
  {
    "name": "STARLINK-35935",
    "noradId": "66527",
    "line1": "1 66527U 25265M   26181.88838455  .00016022  00000+0  59019-3 0  9990",
    "line2": "2 66527  43.0040 358.8283 0001479 275.8839  84.1844 15.27596721 34426"
  },
  {
    "name": "STARLINK-35928",
    "noradId": "66528",
    "line1": "1 66528U 25265N   26182.18961141  .00034970  00000+0  12731-2 0  9995",
    "line2": "2 66528  43.0037 356.7823 0001719 265.3980  94.6676 15.27611073 34470"
  },
  {
    "name": "STARLINK-35933",
    "noradId": "66529",
    "line1": "1 66529U 25265P   26181.57302865  .00015937  00000+0  58695-3 0  9992",
    "line2": "2 66529  43.0027   0.7658 0001163 225.3636 134.7121 15.27606549 34371"
  },
  {
    "name": "STARLINK-35961",
    "noradId": "66530",
    "line1": "1 66530U 25265Q   26181.49349538  .00024206  00000+0  88609-3 0  9990",
    "line2": "2 66530  43.0039   1.0279 0001731 261.2644  98.8012 15.27586225 34364"
  },
  {
    "name": "STARLINK-35960",
    "noradId": "66531",
    "line1": "1 66531U 25265R   26182.17678175  .00037334  00000+0  13573-2 0  9992",
    "line2": "2 66531  43.0024 356.6959 0000934 348.7787  11.3044 15.27628927 34479"
  },
  {
    "name": "STARLINK-35914",
    "noradId": "66532",
    "line1": "1 66532U 25265S   26181.88708273  .00020401  00000+0  74791-3 0  9990",
    "line2": "2 66532  43.0044 358.8206 0002180 267.2038  92.8564 15.27620411 34426"
  }
]